OBJECT_NAME,OBJECT_ID,EPOCH,MEAN_MOTION,ECCENTRICITY,INCLINATION,RA_OF_ASC_NODE,ARG_OF_PERICENTER,MEAN_ANOMALY,EPHEMERIS_TYPE,CLASSIFICATION_TYPE,NORAD_CAT_ID,ELEMENT_SET_NO,REV_AT_EPOCH,BSTAR,MEAN_MOTION_DOT,MEAN_MOTION_DDOT
TDRS 3,1988-091B,2026-07-06T03:16:54.022368,1.00266569,.00369025,12.5877,340.8710,356.0569,307.4577,0,U,19548,999,12557,0,-.29E-5,0
FLTSATCOM 8 (USA 46),1989-077A,2026-07-05T20:55:45.655680,1.00267818,.00036968,12.4162,351.0508,64.4290,308.0187,0,U,20253,999,26075,0,-.359E-5,0
SKYNET 4C,1990-079A,2026-07-05T23:34:16.700736,0.98576283,.00032498,13.3323,349.6907,132.4567,42.6742,0,U,20776,999,22,0,.16E-6,0
TDRS 5,1991-054B,2026-07-06T06:36:10.896768,1.00270542,.00069695,14.0685,353.6321,256.9076,325.0845,0,U,21639,999,12790,0,.92E-6,0
TDRS 6,1993-003B,2026-07-06T04:59:50.123328,1.00264409,.00089554,14.1830,356.9166,180.1999,135.8981,0,U,22314,999,12259,0,-.289E-5,0
UFO 2 (USA 95),1993-056A,2026-07-06T03:39:49.900896,1.00277727,.00040047,11.9012,3.4492,9.8467,354.5224,0,U,22787,999,11874,0,.133E-5,0
USA 99 (MILSTAR-1 1),1994-009A,2026-07-06T05:51:33.936192,0.98720376,.00014768,17.6534,27.5054,185.6970,57.5742,0,U,22988,999,3313,0,.3E-7,0
UFO 4 (USA 108),1995-003A,2026-07-05T19:47:24.485280,1.00274705,.00030403,9.6819,13.0711,87.6656,292.1852,0,U,23467,999,11514,0,-.12E-6,0
TDRS 7,1995-035B,2026-07-05T22:49:06.032064,1.00276345,.00116957,13.3693,348.0603,83.8010,283.5187,0,U,23613,999,11344,0,-.232E-5,0
USA 115 (MILSTAR-1 2),1995-060A,2026-07-06T00:10:21.607392,1.00272130,.00063485,14.0789,3.6006,119.1528,73.8031,0,U,23712,999,3307,0,-.195E-5,0
INMARSAT 3-F1,1996-020A,2026-07-06T05:50:45.387168,0.99978647,.00041297,10.6397,46.4576,77.4418,132.6814,0,U,23839,999,11044,0,.14E-6,0
INMARSAT 3-F2,1996-053A,2026-07-05T23:01:04.884384,0.99996343,.00064374,9.8984,53.7439,46.1930,300.2738,0,U,24307,999,10910,0,-.343E-5,0
INMARSAT 3-F3,1996-070A,2026-07-05T20:24:40.455936,0.99991361,.00033778,10.3576,49.4730,62.1169,141.7629,0,U,24674,999,10809,0,.1E-5,0
USA 134,1997-065A,2026-07-06T02:59:34.753920,1.00271963,.00023539,12.8051,21.5744,341.4531,213.5376,0,U,25019,999,3314,0,-.54E-6,0
INMARSAT 3-F5,1998-006B,2026-07-06T01:27:49.497120,1.00268731,.00040336,9.7323,53.0676,54.7114,144.2205,0,U,25153,999,10408,0,-.282E-5,0
ABS-6,1999-053A,2026-07-06T04:56:38.707584,1.00278351,.00034221,0.0673,266.1665,183.6334,67.5610,0,U,25924,999,9803,0,-.104E-5,0
UFO 10 (USA 146),1999-063A,2026-07-05T20:34:30.263808,1.00274132,.00012442,9.8533,27.1118,92.8566,89.5126,0,U,25967,999,9753,0,-.179E-5,0
ASIASTAR,2000-016A,2026-07-06T02:18:59.569056,1.00267508,.00043351,9.1705,57.9481,50.4720,315.3714,0,U,26107,999,9611,0,-.323E-5,0
USA 149 (DSP 20),2000-024A,2026-07-06T04:27:22.842720,1.00283250,.00013722,13.1839,11.7106,303.0300,231.3692,0,U,26356,999,3310,0,.104E-5,0
TDRS 8,2000-034A,2026-07-06T00:30:39.600288,1.00274106,.00044492,12.7127,31.1606,29.3675,315.9616,0,U,26388,999,9536,0,-.188E-5,0
NSS-11,2000-059A,2026-07-06T04:21:53.369280,1.00271957,.0002935,2.1725,81.1742,25.5023,58.9594,0,U,26554,999,4148,0,.38E-6,0
USA 153,2000-065A,2026-07-05T23:01:57.299808,1.00275358,.00022514,11.6555,35.2614,54.9649,313.5994,0,U,26575,999,3312,0,-.316E-5,0
AMC-6,2000-067A,2026-07-06T06:07:25.047264,1.00271100,.0003887,0.1976,83.5859,33.2442,124.2298,0,U,26580,999,9408,0,.103E-5,0
USA 157 (MILSTAR-2 2),2001-009A,2026-07-05T16:32:55.583808,1.00270728,.00403093,11.5617,19.6422,178.5351,183.6475,0,U,26715,999,3313,0,.118E-5,0
INTELSAT 902 (IS-902),2001-039A,2026-07-06T05:53:37.813056,1.00270531,.00042858,6.1639,71.5498,32.2428,218.7251,0,U,26900,999,9088,0,-.272E-5,0
USA 164 (MILSTAR-2 3),2002-001A,2026-07-06T05:25:38.770752,1.00274196,.00987763,11.2009,21.7838,8.9618,353.8121,0,U,27168,999,3315,0,.106E-5,0
INTELSAT 904 (IS-904),2002-007A,2026-07-06T01:39:59.088096,1.00273098,.00057612,6.9639,68.9566,19.7279,188.8841,0,U,27380,999,5195,0,-.214E-5,0
DIRECTV 5 (TEMPO 1),2002-023A,2026-07-06T03:00:19.681920,1.00271206,.00031921,4.9229,75.0767,30.6193,113.3969,0,U,27426,999,8831,0,-.45E-6,0
INTELSAT 905 (IS-905),2002-027A,2026-07-06T06:10:44.169888,1.00271659,.00038088,6.7982,69.5690,38.3692,131.7862,0,U,27438,999,5155,0,.105E-5,0
GALAXY 3C (G-3C),2002-030A,2026-07-06T06:29:56.251680,1.00271453,.00017259,3.7791,77.7299,34.1269,175.0602,0,U,27445,999,4668,0,-.14E-5,0
INTELSAT 906 (IS-906),2002-041A,2026-07-06T05:32:34.898208,1.00271310,.00040282,5.8497,72.6870,14.2547,344.5480,0,U,27513,999,8721,0,.25E-6,0
