TDRS 3                  
1 19548U 88091B   26187.13673637 -.00000290  00000+0  00000+0 0  9993
2 19548  12.5877 340.8710 0036902 356.0569 307.4577  1.00266569125574
FLTSATCOM 8 (USA 46)    
1 20253U 89077A   26186.87205620 -.00000359  00000+0  00000+0 0  9992
2 20253  12.4162 351.0508 0003696  64.4290 308.0187  1.00267818260751
SKYNET 4C               
1 20776U 90079A   26186.98213774  .00000016  00000+0  00000+0 0  9996
2 20776  13.3323 349.6907 0003249 132.4567  42.6742  0.98576283   220
TDRS 5                  
1 21639U 91054B   26187.27512612  .00000092  00000+0  00000+0 0  9999
2 21639  14.0685 353.6321 0006969 256.9076 325.0845  1.00270542127902
TDRS 6                  
1 22314U 93003B   26187.20821902 -.00000289  00000+0  00000+0 0  9993
2 22314  14.1830 356.9166 0008955 180.1999 135.8981  1.00264409122591
UFO 2 (USA 95)          
1 22787U 93056A   26187.15266089  .00000133  00000+0  00000+0 0  9995
2 22787  11.9012   3.4492 0004004   9.8467 354.5224  1.00277727118745
USA 99 (MILSTAR-1 1)    
1 22988U 94009A   26187.24414278  .00000003  00000+0  00000+0 0  9998
2 22988  17.6534  27.5054 0001476 185.6970  57.5742  0.98720376 33136
UFO 4 (USA 108)         
1 23467U 95003A   26186.82458895 -.00000012  00000+0  00000+0 0  9993
2 23467   9.6819  13.0711 0003040  87.6656 292.1852  1.00274705115142
TDRS 7                  
1 23613U 95035B   26186.95076426 -.00000232  00000+0  00000+0 0  9995
2 23613  13.3693 348.0603 0011695  83.8010 283.5187  1.00276345113443
USA 115 (MILSTAR-1 2)   
1 23712U 95060A   26187.00719453 -.00000195  00000+0  00000+0 0  9992
2 23712  14.0789   3.6006 0006348 119.1528  73.8031  1.00272130 33070
INMARSAT 3-F1           
1 23839U 96020A   26187.24358087  .00000014  00000+0  00000+0 0  9996
2 23839  10.6397  46.4576 0004129  77.4418 132.6814  0.99978647110446
INMARSAT 3-F2           
1 24307U 96053A   26186.95908431 -.00000343  00000+0  00000+0 0  9990
2 24307   9.8984  53.7439 0006437  46.1930 300.2738  0.99996343109106
INMARSAT 3-F3           
1 24674U 96070A   26186.85046824  .00000100  00000+0  00000+0 0  9994
2 24674  10.3576  49.4730 0003377  62.1169 141.7629  0.99991361108094
USA 134                 
1 25019U 97065A   26187.12470780 -.00000054  00000+0  00000+0 0  9995
2 25019  12.8051  21.5744 0002353 341.4531 213.5376  1.00271963 33140
INMARSAT 3-F5           
1 25153U 98006B   26187.06098955 -.00000282  00000+0  00000+0 0  9996
2 25153   9.7323  53.0676 0004033  54.7114 144.2205  1.00268731104080
ABS-6                   
1 25924U 99053A   26187.20600356 -.00000104  00000+0  00000+0 0  9998
2 25924   0.0673 266.1665 0003422 183.6334  67.5610  1.00278351 98033
UFO 10 (USA 146)        
1 25967U 99063A   26186.85729472 -.00000179  00000+0  00000+0 0  9999
2 25967   9.8533  27.1118 0001244  92.8566  89.5126  1.00274132 97531
ASIASTAR                
1 26107U 00016A   26187.09652279 -.00000323  00000+0  00000+0 0  9994
2 26107   9.1705  57.9481 0004335  50.4720 315.3714  1.00267508 96117
USA 149 (DSP 20)        
1 26356U 00024A   26187.18568105  .00000104  00000+0  00000+0 0  9999
2 26356  13.1839  11.7106 0001372 303.0300 231.3692  1.00283250 33101
TDRS 8                  
1 26388U 00034A   26187.02129167 -.00000188  00000+0  00000+0 0  9992
2 26388  12.7127  31.1606 0004449  29.3675 315.9616  1.00274106 95364
NSS-11                  
1 26554U 00059A   26187.18186770  .00000038  00000+0  00000+0 0  9997
2 26554   2.1725  81.1742 0002935  25.5023  58.9594  1.00271957 41489
USA 153                 
1 26575U 00065A   26186.95969097 -.00000316  00000+0  00000+0 0  9992
2 26575  11.6555  35.2614 0002251  54.9649 313.5994  1.00275358 33122
AMC-6                   
1 26580U 00067A   26187.25515101  .00000103  00000+0  00000+0 0  9990
2 26580   0.1976  83.5859 0003887  33.2442 124.2298  1.00271100 94089
USA 157 (MILSTAR-2 2)   
1 26715U 01009A   26186.68953222  .00000118  00000+0  00000+0 0  9999
2 26715  11.5617  19.6422 0040309 178.5351 183.6475  1.00270728 33135
INTELSAT 902 (IS-902)   
1 26900U 01039A   26187.24557654 -.00000272  00000+0  00000+0 0  9992
2 26900   6.1639  71.5498 0004285  32.2428 218.7251  1.00270531 90888
USA 164 (MILSTAR-2 3)   
1 27168U 02001A   26187.22614318  .00000106  00000+0  00000+0 0  9993
2 27168  11.2009  21.7838 0098776   8.9618 353.8121  1.00274196 33152
INTELSAT 904 (IS-904)   
1 27380U 02007A   26187.06943389 -.00000214  00000+0  00000+0 0  9991
2 27380   6.9639  68.9566 0005761  19.7279 188.8841  1.00273098 51957
DIRECTV 5 (TEMPO 1)     
1 27426U 02023A   26187.12522780 -.00000045  00000+0  00000+0 0  9997
2 27426   4.9229  75.0767 0003192  30.6193 113.3969  1.00271206 88319
INTELSAT 905 (IS-905)   
1 27438U 02027A   26187.25745567  .00000105  00000+0  00000+0 0  9994
2 27438   6.7982  69.5690 0003808  38.3692 131.7862  1.00271659 51558
GALAXY 3C (G-3C)        
1 27445U 02030A   26187.27078995 -.00000140  00000+0  00000+0 0  9992
2 27445   3.7791  77.7299 0001725  34.1269 175.0602  1.00271453 46680
INTELSAT 906 (IS-906)   
1 27513U 02041A   26187.23095947  .00000025  00000+0  00000+0 0  9993
2 27513   5.8497  72.6870 0004028  14.2547 344.5480  1.00271310 87211
